{"type": "FeatureCollection", "features": [{"type": "Feature", "id": 1, "geometry": {"type": "MultiLineString", "coordinates": [[[-94.60098399999998, 29.66140400000006], [-94.59994399999994, 29.66026800000003]]]}, "properties": {"OBJECTID": 1, "TYPEPIPE": "Intrastate", "Operator": "Texas Intrastate Pipeline Co", "Status": "Operating", "Shape_Leng": 0.0015401610306}}, {"type": "Feature", "id": 2, "geometry": {"type": "MultiLineString", "coordinates": [[[-94.60663999999997, 29.661064000000067], [-94.60098399999998, 29.66140400000006]]]}, "properties": {"OBJECTID": 2, "TYPEPIPE": "Intrastate", "Operator": "Texas Intrastate Pipeline Co", "Status": "Operating", "Shape_Leng": 0.0056662100208}}, {"type": "Feature", "id": 3, "geometry": {"type": "MultiLineString", "coordinates": [[[-106.06389999999999, 44.692683000000045], [-106.03709199999997, 44.69548300000008], [-106.02630799999997, 44.69606600000003], [-105.97392399999995, 44.73471600000005], [-105.95320599999997, 44.74572200000006], [-105.95078599999994, 44.746545000000026], [-105.92110799999995, 44.76294500000006]]]}, "properties": {"OBJECTID": 3, "TYPEPIPE": "Gathering", "Operator": "Bighorn Gathering Header", "Status": "Operating", "Shape_Leng": 0.162776677137}}, {"type": "Feature", "id": 4, "geometry": {"type": "MultiLineString", "coordinates": [[[-105.92110799999995, 44.76294500000006], [-105.89508799999999, 44.77736800000008], [-105.89419799999996, 44.78001900000004], [-105.89907599999998, 44.80008800000007]]]}, "properties": {"OBJECTID": 4, "TYPEPIPE": "Gathering", "Operator": "Bighorn Gathering Header", "Status": "Operating", "Shape_Leng": 0.0531997429576}}, {"type": "Feature", "id": 5, "geometry": {"type": "MultiLineString", "coordinates": [[[-102.04797299999996, 39.27629300000007], [-101.65356099999997, 39.07821900000005], [-101.59167499999995, 38.99181200000004], [-101.47058599999997, 38.90464300000008], [-101.40340399999997, 38.85401900000005], [-101.28862999999996, 38.800497000000064], [-101.27893599999999, 38.77416100000005], [-101.19049099999995, 38.71660500000007], [-101.04349699999995, 38.56866700000006], [-100.36637099999996, 38.20876300000003], [-100.32997699999999, 38.15797300000003], [-99.87689399999994, 37.872291000000075], [-99.68356499999999, 37.83713000000006], [-99.39509299999997, 37.612997000000064]]]}, "properties": {"OBJECTID": 5, "TYPEPIPE": "Interstate", "Operator": "Cheyenne Plains Pipeline Co", "Status": "Operating", "Shape_Leng": 3.17648993984}}, {"type": "Feature", "id": 6, "geometry": {"type": "MultiLineString", "coordinates": [[[-104.79349299999996, 40.94005600000003], [-103.81928799999997, 40.45566800000006], [-103.50827299999997, 40.181508000000065], [-102.88003899999995, 39.86020700000006], [-102.42249299999997, 39.58777300000003], [-102.18736499999994, 39.40614900000003], [-102.09962799999994, 39.29055000000005], [-102.04849499999995, 39.27589000000006]]]}, "properties": {"OBJECTID": 6, "TYPEPIPE": "Interstate", "Operator": "Cheyenne Plains Pipeline Co", "Status": "Operating", "Shape_Leng": 3.23614834895}}, {"type": "Feature", "id": 7, "geometry": {"type": "MultiLineString", "coordinates": []}, "properties": {"OBJECTID": 7, "TYPEPIPE": "Interstate", "Operator": "El Paso Natural Gas Co", "Status": "Operating", "Shape_Leng": 0.0}}, {"type": "Feature", "id": 8, "geometry": {"type": "MultiLineString", "coordinates": []}, "properties": {"OBJECTID": 8, "TYPEPIPE": "Interstate", "Operator": "El Paso Natural Gas Co", "Status": "Operating", "Shape_Leng": 0.0}}, {"type": "Feature", "id": 9, "geometry": {"type": "MultiLineString", "coordinates": []}, "properties": {"OBJECTID": 9, "TYPEPIPE": "Interstate", "Operator": "El Paso Natural Gas Co", "Status": "Operating", "Shape_Leng": 0.0}}, {"type": "Feature", "id": 10, "geometry": {"type": "MultiLineString", "coordinates": [[[-96.91604499999994, 40.31310700000006], [-96.73959499999995, 40.23200000000003]]]}, "properties": {"OBJECTID": 10, "TYPEPIPE": "Interstate", "Operator": "Trailblazer Pipeline Co", "Status": "Operating", "Shape_Leng": 0.194198218192}}, {"type": "Feature", "id": 11, "geometry": {"type": "MultiLineString", "coordinates": [[[-97.36942099999999, 40.393583000000035], [-97.27389199999999, 40.394930000000045], [-97.06572499999999, 40.37427500000007], [-97.00526699999995, 40.349060000000065], [-96.91598699999997, 40.31311500000004]]]}, "properties": {"OBJECTID": 11, "TYPEPIPE": "Interstate", "Operator": "Trailblazer Pipeline Co", "Status": "Operating", "Shape_Leng": 0.466477459432}}, {"type": "Feature", "id": 12, "geometry": {"type": "MultiLineString", "coordinates": [[[-97.66517799999997, 40.392791000000045], [-97.36801499999996, 40.394656000000055]]]}, "properties": {"OBJECTID": 12, "TYPEPIPE": "Interstate", "Operator": "Trailblazer Pipeline Co", "Status": "Operating", "Shape_Leng": 0.297168852328}}, {"type": "Feature", "id": 13, "geometry": {"type": "MultiLineString", "coordinates": [[[-97.82310399999994, 40.426240000000064], [-97.66524499999997, 40.392791000000045]]]}, "properties": {"OBJECTID": 13, "TYPEPIPE": "Interstate", "Operator": "Trailblazer Pipeline Co", "Status": "Operating", "Shape_Leng": 0.161363872915}}, {"type": "Feature", "id": 14, "geometry": {"type": "MultiLineString", "coordinates": [[[-98.60902399999998, 40.522624000000064], [-98.55727799999994, 40.49222200000003]]]}, "properties": {"OBJECTID": 14, "TYPEPIPE": "Interstate", "Operator": "Trailblazer Pipeline Co", "Status": "Operating", "Shape_Leng": 0.0600160821781}}, {"type": "Feature", "id": 15, "geometry": {"type": "MultiLineString", "coordinates": [[[-98.27353599999998, 40.44556800000004], [-98.13299199999994, 40.426240000000064]]]}, "properties": {"OBJECTID": 15, "TYPEPIPE": "Interstate", "Operator": "Trailblazer Pipeline Co", "Status": "Operating", "Shape_Leng": 0.141866794987}}, {"type": "Feature", "id": 16, "geometry": {"type": "MultiLineString", "coordinates": [[[-98.55727799999994, 40.49222200000003], [-98.27353599999998, 40.44556800000004]]]}, "properties": {"OBJECTID": 16, "TYPEPIPE": "Interstate", "Operator": "Trailblazer Pipeline Co", "Status": "Operating", "Shape_Leng": 0.287551940143}}, {"type": "Feature", "id": 17, "geometry": {"type": "MultiLineString", "coordinates": [[[-98.13299199999994, 40.426240000000064], [-97.91640299999995, 40.42755500000004]]]}, "properties": {"OBJECTID": 17, "TYPEPIPE": "Interstate", "Operator": "Trailblazer Pipeline Co", "Status": "Operating", "Shape_Leng": 0.216592991913}}, {"type": "Feature", "id": 18, "geometry": {"type": "MultiLineString", "coordinates": [[[-98.72396799999996, 40.530944000000034], [-98.60902399999998, 40.522624000000064]]]}, "properties": {"OBJECTID": 18, "TYPEPIPE": "Interstate", "Operator": "Trailblazer Pipeline Co", "Status": "Operating", "Shape_Leng": 0.115244720209}}, {"type": "Feature", "id": 19, "geometry": {"type": "MultiLineString", "coordinates": [[[-98.75289599999996, 40.536448000000064], [-98.72396799999996, 40.530944000000034]]]}, "properties": {"OBJECTID": 19, "TYPEPIPE": "Interstate", "Operator": "Trailblazer Pipeline Co", "Status": "Operating", "Shape_Leng": 0.0294469557001}}, {"type": "Feature", "id": 20, "geometry": {"type": "MultiLineString", "coordinates": [[[-99.17785599999996, 40.57497600000005], [-98.75289599999996, 40.536448000000064]]]}, "properties": {"OBJECTID": 20, "TYPEPIPE": "Interstate", "Operator": "Trailblazer Pipeline Co", "Status": "Operating", "Shape_Leng": 0.42670295099}}, {"type": "Feature", "id": 21, "geometry": {"type": "MultiLineString", "coordinates": [[[-99.52601599999997, 40.599680000000035], [-99.17785599999996, 40.57497600000005]]]}, "properties": {"OBJECTID": 21, "TYPEPIPE": "Interstate", "Operator": "Trailblazer Pipeline Co", "Status": "Operating", "Shape_Leng": 0.349035346657}}, {"type": "Feature", "id": 22, "geometry": {"type": "MultiLineString", "coordinates": [[[-99.55161599999997, 40.64102400000007], [-99.52601599999997, 40.599680000000035]]]}, "properties": {"OBJECTID": 22, "TYPEPIPE": "Interstate", "Operator": "Trailblazer Pipeline Co", "Status": "Operating", "Shape_Leng": 0.048628040635}}, {"type": "Feature", "id": 23, "geometry": {"type": "MultiLineString", "coordinates": [[[-99.64095999999995, 40.64102400000007], [-99.55161599999997, 40.64102400000007]]]}, "properties": {"OBJECTID": 23, "TYPEPIPE": "Interstate", "Operator": "Trailblazer Pipeline Co", "Status": "Operating", "Shape_Leng": 0.089344}}, {"type": "Feature", "id": 24, "geometry": {"type": "MultiLineString", "coordinates": [[[-99.75014399999998, 40.646528000000046], [-99.64095999999995, 40.64102400000007]]]}, "properties": {"OBJECTID": 24, "TYPEPIPE": "Interstate", "Operator": "Trailblazer Pipeline Co", "Status": "Operating", "Shape_Leng": 0.109322641168}}, {"type": "Feature", "id": 25, "geometry": {"type": "MultiLineString", "coordinates": [[[-99.98156799999998, 40.67136000000005], [-99.75014399999998, 40.646528000000046]]]}, "properties": {"OBJECTID": 25, "TYPEPIPE": "Interstate", "Operator": "Trailblazer Pipeline Co", "Status": "Operating", "Shape_Leng": 0.232752435003}}, {"type": "Feature", "id": 26, "geometry": {"type": "MultiLineString", "coordinates": [[[-100.12607999999994, 40.70169600000003], [-99.98156799999998, 40.67136000000005]]]}, "properties": {"OBJECTID": 26, "TYPEPIPE": "Interstate", "Operator": "Trailblazer Pipeline Co", "Status": "Operating", "Shape_Leng": 0.147661745351}}, {"type": "Feature", "id": 27, "geometry": {"type": "MultiLineString", "coordinates": [[[-100.22259199999996, 40.71808000000004], [-100.12607999999994, 40.70169600000003]]]}, "properties": {"OBJECTID": 27, "TYPEPIPE": "Interstate", "Operator": "Trailblazer Pipeline Co", "Status": "Operating", "Shape_Leng": 0.0978928066816}}, {"type": "Feature", "id": 28, "geometry": {"type": "MultiLineString", "coordinates": [[[-100.57279999999997, 40.79526400000003], [-100.22259199999996, 40.71808000000004]]]}, "properties": {"OBJECTID": 28, "TYPEPIPE": "Interstate", "Operator": "Trailblazer Pipeline Co", "Status": "Operating", "Shape_Leng": 0.358612622645}}, {"type": "Feature", "id": 29, "geometry": {"type": "MultiLineString", "coordinates": [[[-100.64025599999997, 40.79526400000003], [-100.57279999999997, 40.79526400000003]]]}, "properties": {"OBJECTID": 29, "TYPEPIPE": "Interstate", "Operator": "Trailblazer Pipeline Co", "Status": "Operating", "Shape_Leng": 0.067456}}, {"type": "Feature", "id": 30, "geometry": {"type": "MultiLineString", "coordinates": [[[-100.69171199999994, 40.819968000000074], [-100.64025599999997, 40.79526400000003]]]}, "properties": {"OBJECTID": 30, "TYPEPIPE": "Interstate", "Operator": "Trailblazer Pipeline Co", "Status": "Operating", "Shape_Leng": 0.0570789589253}}, {"type": "Feature", "id": 31, "geometry": {"type": "MultiLineString", "coordinates": [[[-100.77849599999996, 40.82547200000005], [-100.69171199999994, 40.819968000000074]]]}, "properties": {"OBJECTID": 31, "TYPEPIPE": "Interstate", "Operator": "Trailblazer Pipeline Co", "Status": "Operating", "Shape_Leng": 0.0869583617141}}, {"type": "Feature", "id": 32, "geometry": {"type": "MultiLineString", "coordinates": [[[-101.24799999999999, 40.84492800000004], [-100.77849599999996, 40.82547200000005]]]}, "properties": {"OBJECTID": 32, "TYPEPIPE": "Interstate", "Operator": "Trailblazer Pipeline Co", "Status": "Operating", "Shape_Leng": 0.469906950313}}, {"type": "Feature", "id": 33, "geometry": {"type": "MultiLineString", "coordinates": [[[-102.04876799999994, 40.86144000000007], [-101.24799999999999, 40.84492800000004]]]}, "properties": {"OBJECTID": 33, "TYPEPIPE": "Interstate", "Operator": "Trailblazer Pipeline Co", "Status": "Operating", "Shape_Leng": 0.800938222317}}, {"type": "Feature", "id": 34, "geometry": {"type": "MultiLineString", "coordinates": [[[-102.54425599999996, 40.869632000000024], [-102.05036099999995, 40.861466000000064]]]}, "properties": {"OBJECTID": 34, "TYPEPIPE": "Interstate", "Operator": "Trailblazer Pipeline Co", "Status": "Operating", "Shape_Leng": 0.493962503214}}, {"type": "Feature", "id": 35, "geometry": {"type": "MultiLineString", "coordinates": [[[-102.65356799999995, 40.96051200000005], [-102.54425599999996, 40.869632000000024]]]}, "properties": {"OBJECTID": 35, "TYPEPIPE": "Interstate", "Operator": "Trailblazer Pipeline Co", "Status": "Operating", "Shape_Leng": 0.142155857227}}, {"type": "Feature", "id": 36, "geometry": {"type": "MultiLineString", "coordinates": [[[-102.91737599999999, 40.98240000000004], [-102.65356799999995, 40.96051200000005]]]}, "properties": {"OBJECTID": 36, "TYPEPIPE": "Interstate", "Operator": "Trailblazer Pipeline Co", "Status": "Operating", "Shape_Leng": 0.264714460142}}, {"type": "Feature", "id": 37, "geometry": {"type": "MultiLineString", "coordinates": [[[-103.52700599999997, 40.97742900000003], [-103.01951999999994, 40.981553000000076]]]}, "properties": {"OBJECTID": 37, "TYPEPIPE": "Interstate", "Operator": "Trailblazer Pipeline Co", "Status": "Operating", "Shape_Leng": 0.507502756221}}, {"type": "Feature", "id": 38, "geometry": {"type": "MultiLineString", "coordinates": [[[-103.65408899999994, 41.05771500000003], [-103.56488899999994, 41.00172900000007]]]}, "properties": {"OBJECTID": 38, "TYPEPIPE": "Interstate", "Operator": "Trailblazer Pipeline Co", "Status": "Operating", "Shape_Leng": 0.105314159523}}, {"type": "Feature", "id": 39, "geometry": {"type": "MultiLineString", "coordinates": [[[-104.13324799999998, 41.00172800000007], [-104.13045999999997, 41.00246100000004]]]}, "properties": {"OBJECTID": 39, "TYPEPIPE": "Interstate", "Operator": "Trailblazer Pipeline Co", "Status": "Operating", "Shape_Leng": 0.0028827474742}}, {"type": "Feature", "id": 40, "geometry": {"type": "MultiLineString", "coordinates": [[[-104.29081599999995, 40.98521600000004], [-104.13324799999998, 41.00172800000007]]]}, "properties": {"OBJECTID": 40, "TYPEPIPE": "Interstate", "Operator": "Trailblazer Pipeline Co", "Status": "Operating", "Shape_Leng": 0.158430807509}}, {"type": "Feature", "id": 41, "geometry": {"type": "MultiLineString", "coordinates": [[[-104.67430399999995, 40.97075200000006], [-104.29081599999995, 40.98521600000004]]]}, "properties": {"OBJECTID": 41, "TYPEPIPE": "Interstate", "Operator": "Trailblazer Pipeline Co", "Status": "Operating", "Shape_Leng": 0.383760672086}}, {"type": "Feature", "id": 42, "geometry": {"type": "MultiLineString", "coordinates": [[[-104.79289599999998, 40.93920000000003], [-104.67430399999995, 40.97075200000006]]]}, "properties": {"OBJECTID": 42, "TYPEPIPE": "Interstate", "Operator": "Trailblazer Pipeline Co", "Status": "Operating", "Shape_Leng": 0.12271752592}}, {"type": "Feature", "id": 43, "geometry": {"type": "MultiLineString", "coordinates": [[[-103.01951999999994, 40.981553000000076], [-102.91737599999999, 40.98240000000004]]]}, "properties": {"OBJECTID": 43, "TYPEPIPE": "Interstate", "Operator": "Trailblazer Pipeline Co", "Status": "Operating", "Shape_Leng": 0.102147511693}}, {"type": "Feature", "id": 44, "geometry": {"type": "MultiLineString", "coordinates": [[[-97.91640299999995, 40.42755500000004], [-97.82310399999994, 40.426240000000064]]]}, "properties": {"OBJECTID": 44, "TYPEPIPE": "Interstate", "Operator": "Trailblazer Pipeline Co", "Status": "Operating", "Shape_Leng": 0.0933082666541}}, {"type": "Feature", "id": 45, "geometry": {"type": "MultiLineString", "coordinates": [[[-104.13045999999997, 41.00246100000004], [-104.05263799999994, 41.05747100000008]]]}, "properties": {"OBJECTID": 45, "TYPEPIPE": "Interstate", "Operator": "Trailblazer Pipeline Co", "Status": "Operating", "Shape_Leng": 0.0953014364215}}, {"type": "Feature", "id": 46, "geometry": {"type": "MultiLineString", "coordinates": [[[-103.56473699999998, 41.00172900000007], [-103.52700599999997, 40.97742900000003]]]}, "properties": {"OBJECTID": 46, "TYPEPIPE": "Interstate", "Operator": "Trailblazer Pipeline Co", "Status": "Operating", "Shape_Leng": 0.0448789300341}}, {"type": "Feature", "id": 47, "geometry": {"type": "MultiLineString", "coordinates": [[[-104.05268899999999, 41.057394000000045], [-103.65408299999996, 41.05777800000004]]]}, "properties": {"OBJECTID": 47, "TYPEPIPE": "Interstate", "Operator": "Trailblazer Pipeline Co", "Status": "Operating", "Shape_Leng": 0.398606184965}}, {"type": "Feature", "id": 48, "geometry": {"type": "MultiLineString", "coordinates": [[[-102.05036099999995, 40.861466000000064], [-102.04876799999994, 40.86144000000007]]]}, "properties": {"OBJECTID": 48, "TYPEPIPE": "Interstate", "Operator": "Trailblazer Pipeline Co", "Status": "Operating", "Shape_Leng": 0.00159321216417}}]}